CCSDS_OMM_VERS = 2.0
CREATION_DATE  = 
ORIGINATOR     = 

OBJECT_NAME    = SL-3 R/B
OBJECT_ID      = 1982-079B
CENTER_NAME    = EARTH
REF_FRAME      = TEME
TIME_SYSTEM    = UTC
MEAN_ELEMENT_THEORY = SGP/SGP4

EPOCH          = 2025-12-28T18:29:14.233632
MEAN_MOTION    = 15.23786953
ECCENTRICITY   = .0026689
INCLINATION    = 81.1472
RA_OF_ASC_NODE = 276.7639
ARG_OF_PERICENTER = 47.6335
MEAN_ANOMALY   = 312.7151

EPHEMERIS_TYPE = 0
CLASSIFICATION_TYPE = U
NORAD_CAT_ID   = 13403
ELEMENT_SET_NO = 999
REV_AT_EPOCH   = 36689
BSTAR          = .33956E-3
MEAN_MOTION_DOT = .8281E-4
MEAN_MOTION_DDOT = 0

CCSDS_OMM_VERS = 2.0
CREATION_DATE  = 
ORIGINATOR     = 

OBJECT_NAME    = SL-14 R/B
OBJECT_ID      = 1982-092B
CENTER_NAME    = EARTH
REF_FRAME      = TEME
TIME_SYSTEM    = UTC
MEAN_ELEMENT_THEORY = SGP/SGP4

EPOCH          = 2025-12-28T07:37:23.701152
MEAN_MOTION    = 14.86571050
ECCENTRICITY   = .0020437
INCLINATION    = 82.5668
RA_OF_ASC_NODE = 208.1427
ARG_OF_PERICENTER = 173.8335
MEAN_ANOMALY   = 359.3465

EPHEMERIS_TYPE = 0
CLASSIFICATION_TYPE = U
NORAD_CAT_ID   = 13553
ELEMENT_SET_NO = 999
REV_AT_EPOCH   = 31832
BSTAR          = .66447E-4
MEAN_MOTION_DOT = .615E-5
MEAN_MOTION_DDOT = 0

CCSDS_OMM_VERS = 2.0
CREATION_DATE  = 
ORIGINATOR     = 

OBJECT_NAME    = SL-3 R/B
OBJECT_ID      = 1983-010B
CENTER_NAME    = EARTH
REF_FRAME      = TEME
TIME_SYSTEM    = UTC
MEAN_ELEMENT_THEORY = SGP/SGP4

EPOCH          = 2025-12-28T17:13:56.942688
MEAN_MOTION    = 15.43912603
ECCENTRICITY   = .0016438
INCLINATION    = 81.1041
RA_OF_ASC_NODE = 89.1095
ARG_OF_PERICENTER = 294.1688
MEAN_ANOMALY   = 65.7837

EPHEMERIS_TYPE = 0
CLASSIFICATION_TYPE = U
NORAD_CAT_ID   = 13819
ELEMENT_SET_NO = 999
REV_AT_EPOCH   = 34698
BSTAR          = .38338E-3
MEAN_MOTION_DOT = .1755E-3
MEAN_MOTION_DDOT = 0

CCSDS_OMM_VERS = 2.0
CREATION_DATE  = 
ORIGINATOR     = 

OBJECT_NAME    = SL-3 R/B
OBJECT_ID      = 1983-075B
CENTER_NAME    = EARTH
REF_FRAME      = TEME
TIME_SYSTEM    = UTC
MEAN_ELEMENT_THEORY = SGP/SGP4

EPOCH          = 2025-12-28T19:26:41.132256
MEAN_MOTION    = 15.36475635
ECCENTRICITY   = .0024293
INCLINATION    = 97.6114
RA_OF_ASC_NODE = 359.8373
ARG_OF_PERICENTER = 120.4000
MEAN_ANOMALY   = 239.9649

EPHEMERIS_TYPE = 0
CLASSIFICATION_TYPE = U
NORAD_CAT_ID   = 14208
ELEMENT_SET_NO = 999
REV_AT_EPOCH   = 31926
BSTAR          = .39878E-3
MEAN_MOTION_DOT = .14255E-3
MEAN_MOTION_DDOT = 0

CCSDS_OMM_VERS = 2.0
CREATION_DATE  = 
ORIGINATOR     = 

OBJECT_NAME    = COSMOS 1536
OBJECT_ID      = 1984-013A
CENTER_NAME    = EARTH
REF_FRAME      = TEME
TIME_SYSTEM    = UTC
MEAN_ELEMENT_THEORY = SGP/SGP4

EPOCH          = 2025-12-28T18:37:28.674048
MEAN_MOTION    = 15.22710810
ECCENTRICITY   = .0014819
INCLINATION    = 82.5448
RA_OF_ASC_NODE = 178.2582
ARG_OF_PERICENTER = 167.3147
MEAN_ANOMALY   = 192.8466

EPHEMERIS_TYPE = 0
CLASSIFICATION_TYPE = U
NORAD_CAT_ID   = 14699
ELEMENT_SET_NO = 999
REV_AT_EPOCH   = 26182
BSTAR          = .36353E-3
MEAN_MOTION_DOT = .8532E-4
MEAN_MOTION_DDOT = 0

CCSDS_OMM_VERS = 2.0
CREATION_DATE  = 
ORIGINATOR     = 

OBJECT_NAME    = SL-14 R/B
OBJECT_ID      = 1984-027B
CENTER_NAME    = EARTH
REF_FRAME      = TEME
TIME_SYSTEM    = UTC
MEAN_ELEMENT_THEORY = SGP/SGP4

EPOCH          = 2025-12-28T07:31:27.397920
MEAN_MOTION    = 14.85891817
ECCENTRICITY   = .00171811
INCLINATION    = 82.5425
RA_OF_ASC_NODE = 311.9513
ARG_OF_PERICENTER = 205.3491
MEAN_ANOMALY   = 154.6884

EPHEMERIS_TYPE = 0
CLASSIFICATION_TYPE = U
NORAD_CAT_ID   = 14820
ELEMENT_SET_NO = 999
REV_AT_EPOCH   = 23703
BSTAR          = .76924068E-4
MEAN_MOTION_DOT = .696E-5
MEAN_MOTION_DDOT = 0

CCSDS_OMM_VERS = 2.0
CREATION_DATE  = 
ORIGINATOR     = 

OBJECT_NAME    = SL-8 R/B
OBJECT_ID      = 1985-006B
CENTER_NAME    = EARTH
REF_FRAME      = TEME
TIME_SYSTEM    = UTC
MEAN_ELEMENT_THEORY = SGP/SGP4

EPOCH          = 2025-12-28T20:21:11.894976
MEAN_MOTION    = 14.37731519
ECCENTRICITY   = .0019368
INCLINATION    = 74.0458
RA_OF_ASC_NODE = 31.4974
ARG_OF_PERICENTER = 320.5758
MEAN_ANOMALY   = 220.4992

EPHEMERIS_TYPE = 0
CLASSIFICATION_TYPE = U
NORAD_CAT_ID   = 15483
ELEMENT_SET_NO = 999
REV_AT_EPOCH   = 14384
BSTAR          = .12799E-3
MEAN_MOTION_DOT = .359E-5
MEAN_MOTION_DDOT = 0

CCSDS_OMM_VERS = 2.0
CREATION_DATE  = 
ORIGINATOR     = 

OBJECT_NAME    = SL-12 R/B(2)
OBJECT_ID      = 1985-042D
CENTER_NAME    = EARTH
REF_FRAME      = TEME
TIME_SYSTEM    = UTC
MEAN_ELEMENT_THEORY = SGP/SGP4

EPOCH          = 2025-12-28T20:36:03.314016
MEAN_MOTION    = 14.21956638
ECCENTRICITY   = .0037177
INCLINATION    = 71.1065
RA_OF_ASC_NODE = 237.3684
ARG_OF_PERICENTER = 237.8251
MEAN_ANOMALY   = 198.4211

EPHEMERIS_TYPE = 0
CLASSIFICATION_TYPE = U
NORAD_CAT_ID   = 15772
ELEMENT_SET_NO = 999
REV_AT_EPOCH   = 10432
BSTAR          = .84277E-4
MEAN_MOTION_DOT = .14E-5
MEAN_MOTION_DDOT = 0

CCSDS_OMM_VERS = 2.0
CREATION_DATE  = 
ORIGINATOR     = 

OBJECT_NAME    = SL-14 R/B
OBJECT_ID      = 1985-069B
CENTER_NAME    = EARTH
REF_FRAME      = TEME
TIME_SYSTEM    = UTC
MEAN_ELEMENT_THEORY = SGP/SGP4

EPOCH          = 2025-12-28T17:22:29.665344
MEAN_MOTION    = 14.86343233
ECCENTRICITY   = .0020221
INCLINATION    = 82.5272
RA_OF_ASC_NODE = 91.6767
ARG_OF_PERICENTER = 69.3672
MEAN_ANOMALY   = 290.9710

EPHEMERIS_TYPE = 0
CLASSIFICATION_TYPE = U
NORAD_CAT_ID   = 15945
ELEMENT_SET_NO = 999
REV_AT_EPOCH   = 16229
BSTAR          = .72767E-4
MEAN_MOTION_DOT = .668E-5
MEAN_MOTION_DDOT = 0

CCSDS_OMM_VERS = 2.0
CREATION_DATE  = 
ORIGINATOR     = 

OBJECT_NAME    = SL-16 R/B
OBJECT_ID      = 1985-097B
CENTER_NAME    = EARTH
REF_FRAME      = TEME
TIME_SYSTEM    = UTC
MEAN_ELEMENT_THEORY = SGP/SGP4

EPOCH          = 2025-12-28T19:25:33.728160
MEAN_MOTION    = 14.16586619
ECCENTRICITY   = .0007676
INCLINATION    = 71.0031
RA_OF_ASC_NODE = 289.7722
ARG_OF_PERICENTER = 346.1808
MEAN_ANOMALY   = 78.4534

EPHEMERIS_TYPE = 0
CLASSIFICATION_TYPE = U
NORAD_CAT_ID   = 16182
ELEMENT_SET_NO = 999
REV_AT_EPOCH   = 7719
BSTAR          = -.61338E-4
MEAN_MOTION_DOT = -.17E-5
MEAN_MOTION_DDOT = 0

CCSDS_OMM_VERS = 2.0
CREATION_DATE  = 
ORIGINATOR     = 

OBJECT_NAME    = SL-14 R/B
OBJECT_ID      = 1986-006B
CENTER_NAME    = EARTH
REF_FRAME      = TEME
TIME_SYSTEM    = UTC
MEAN_ELEMENT_THEORY = SGP/SGP4

EPOCH          = 2025-12-28T20:28:55.477632
MEAN_MOTION    = 14.86692573
ECCENTRICITY   = .0077569
INCLINATION    = 82.5275
RA_OF_ASC_NODE = 326.3891
ARG_OF_PERICENTER = 146.4885
MEAN_ANOMALY   = 214.1276

EPHEMERIS_TYPE = 0
CLASSIFICATION_TYPE = U
NORAD_CAT_ID   = 16496
ELEMENT_SET_NO = 999
REV_AT_EPOCH   = 13868
BSTAR          = .81222E-4
MEAN_MOTION_DOT = .79E-5
MEAN_MOTION_DDOT = 0

CCSDS_OMM_VERS = 2.0
CREATION_DATE  = 
ORIGINATOR     = 

OBJECT_NAME    = COSMOS 1743
OBJECT_ID      = 1986-034A
CENTER_NAME    = EARTH
REF_FRAME      = TEME
TIME_SYSTEM    = UTC
MEAN_ELEMENT_THEORY = SGP/SGP4

EPOCH          = 2025-12-28T09:07:51.959136
MEAN_MOTION    = 15.53095010
ECCENTRICITY   = .00051036
INCLINATION    = 82.5344
RA_OF_ASC_NODE = 148.3348
ARG_OF_PERICENTER = 189.8643
MEAN_ANOMALY   = 170.2511

EPHEMERIS_TYPE = 0
CLASSIFICATION_TYPE = U
NORAD_CAT_ID   = 16719
ELEMENT_SET_NO = 999
REV_AT_EPOCH   = 16916
BSTAR          = .65673567E-3
MEAN_MOTION_DOT = .41275E-3
MEAN_MOTION_DDOT = 0

