SL-3 R/B                
1 13403U 82079B   25362.77030363  .00008281  00000+0  33956-3 0  9991
2 13403  81.1472 276.7639 0026689  47.6335 312.7151 15.23786953366896
SL-14 R/B               
1 13553U 82092B   25362.31763543  .00000615  00000+0  66447-4 0  9990
2 13553  82.5668 208.1427 0020437 173.8335 359.3465 14.86571050318323
SL-3 R/B                
1 13819U 83010B   25362.71802017  .00017550  00000+0  38338-3 0  9993
2 13819  81.1041  89.1095 0016438 294.1688  65.7837 15.43912603346981
SL-3 R/B                
1 14208U 83075B   25362.81019829  .00014255  00000+0  39878-3 0  9998
2 14208  97.6114 359.8373 0024293 120.4000 239.9649 15.36475635319268
COSMOS 1536             
1 14699U 84013A   25362.77602632  .00008532  00000+0  36353-3 0  9996
2 14699  82.5448 178.2582 0014819 167.3147 192.8466 15.22710810261829
SL-14 R/B               
1 14820U 84027B   25362.31351155  .00000696  00000+0  76924-4 0  9990
2 14820  82.5425 311.9513 0017181 205.3491 154.6884 14.85891817237031
SL-8 R/B                
1 15483U 85006B   25362.84805434  .00000359  00000+0  12799-3 0  9991
2 15483  74.0458  31.4974 0019368 320.5758 220.4992 14.37731519143845
SL-12 R/B(2)            
1 15772U 85042D   25362.85837169  .00000140  00000+0  84277-4 0  9992
2 15772  71.1065 237.3684 0037177 237.8251 198.4211 14.21956638104321
SL-14 R/B               
1 15945U 85069B   25362.72395446  .00000668  00000+0  72767-4 0  9992
2 15945  82.5272  91.6767 0020221  69.3672 290.9710 14.86343233162293
SL-16 R/B               
1 16182U 85097B   25362.80941815 -.00000170  00000+0 -61338-4 0  9995
2 16182  71.0031 289.7722 0007676 346.1808  78.4534 14.16586619 77197
SL-14 R/B               
1 16496U 86006B   25362.85341988  .00000790  00000+0  81222-4 0  9994
2 16496  82.5275 326.3891 0077569 146.4885 214.1276 14.86692573138689
COSMOS 1743             
1 16719U 86034A   25362.38046249  .00041275  00000+0  65674-3 0  9998
2 16719  82.5344 148.3348 0005103 189.8643 170.2511 15.53095010169160
